#cP2023  3  5  0  0  0.00000000      96 ORBIT IGS20 HLM  IGS
## 2252      0.00000000   900.00000000 60008 0.0000000000000
+   32   G01G02G03G04G05G06G07G08G09G10G11G12G13G14G15G16G17
+        G18G19G20G21G22G23G24G25G26G27G28G29G30G31G32  0  0
+          0  0  0  0  0  0  0  0  0  0  0  0  0  0  0  0  0
+          0  0  0  0  0  0  0  0  0  0  0  0  0  0  0  0  0
+          0  0  0  0  0  0  0  0  0  0  0  0  0  0  0  0  0
++         2  2  2  2  2  2  2  3  2  2  2  2  2  2  2  2  2
++         3  2  2  2  3  2  2  2  2  2  3  2  2  2  2  0  0
++         0  0  0  0  0  0  0  0  0  0  0  0  0  0  0  0  0
++         0  0  0  0  0  0  0  0  0  0  0  0  0  0  0  0  0
++         0  0  0  0  0  0  0  0  0  0  0  0  0  0  0  0  0
%c G  cc GPS ccc cccc cccc cccc cccc ccccc ccccc ccccc ccccc
%c cc cc ccc ccc cccc cccc cccc cccc ccccc ccccc ccccc ccccc
%f  1.2500000  1.025000000  0.00000000000  0.000000000000000
%f  0.0000000  0.000000000  0.00000000000  0.000000000000000
%i    0    0    0    0      0      0      0      0         0
%i    0    0    0    0      0      0      0      0         0
/* RAPID ORBIT COMBINATION FROM WEIGHTED AVERAGE OF:        
/* cod emr esa gfz grg jpl ngs sio usn whu                  
/* REFERENCED TO IGS TIME (IGST) AND TO WEIGHTED MEAN POLE: 
/* PCV:IGS20_2233 OL/AL:FES2014b NONE     Y  ORB:CMB CLK:CMB
*  2023  3  5 12 45  0.00000000
PG01 -21417.926839 -14630.099185  -6847.271509    205.919872  5  6  5  72       
PG02  23511.727187  11379.986560   4645.967987   -616.560152  5     6  84       
PG03 -12464.328440 -17675.205547  15373.419723   -354.712597  6  4  5  62       
PG04 -15480.076191  -6698.622938  20552.846830    -13.988158  7  5  6  89       
PG05   5356.131162  25902.990368  -1684.794471   -118.282782  9  3  5 103       
PG06 -13697.475371   9028.668460  20977.204624    578.683103  5  5  4  97       
PG07 -25250.578636  -6396.502651  -5936.888046    229.220277  9  4  5  97       
PG08  -4706.384892 -15213.353698 -21258.293029   -111.468634 14 11  4  98       
PG09 -21820.249900   3879.460443  14598.215863   -206.585722  9  4  5  97       
PG10  11753.118410 -13163.296759 -19572.756317    -27.287577  5  6     95       
PG11    524.101163  16411.114449  20894.726167   -121.395867  5  6  6 117       
PG12  10437.682461  20011.930667  13796.325500   -347.800489  5  5  4 105       
PG13  -4173.773599  17577.530897 -19576.488850    485.778105  7  3  3  88       
PG14 -13740.727257  10194.764690 -20276.551735    -11.956696  8  5  5 105       
PG15   7183.950850  14952.973874 -21156.012442     18.856842  7  5  4 102       
PG16   -525.107025 -26294.224773    228.329485   -517.084088  9  3  7  77       
PG17 -22916.946242  13326.105131  -1931.981570    703.731431 10  5  5  63       
PG18  24287.679278   3272.082995 -10417.589559   -166.590077 11  7  5  85       
PG19 -18884.761682  16860.735393   7315.073309    285.945952  8  6  6  57       
PG20     33.866876  24909.177850   9543.369275    446.913140  8  4  5 108       
PG21 -16896.735910 -15559.180676 -13441.181924    154.258598  6  1  5  89       
PG22  15681.451961 -18617.411328  10857.805471    439.293385 10  9 10  63       
PG23  15042.815096   -276.081055 -21889.216921      9.025116  8  5  6  98       
PG24  19412.381783  15042.159522 -10982.296562    -99.272593  6  2  7  81       
PG25  14996.801746  10283.010464  19140.150915    425.211186  2  7  5  94       
PG26   6057.498852 -21896.234971  13360.871976    241.878838  7  6  7  85       
PG27   6783.745837 -19441.699601 -16775.002610     87.979096  8  5  6 111       
PG28  15370.100845  -8784.301049  19766.783933     34.148543  8  5  7 109       
PG29  20417.947983    650.371266  16966.786965   -589.348012  6  6  5  94       
PG30 -20443.027466   4188.861426 -16479.569016   -528.094366  6  6  5 103       
PG31  11979.711428 -10843.055233  20986.044632   -210.854301  7  4  6  92       
PG32  21060.336282 -16002.203246    111.135147   -414.556249  8  5  5  80       
*  2023  3  5 13  0  0.00000000
PG01 -20549.337050 -14411.006965  -9536.368187    205.916225  5  6  5  96       
PG02  22847.270078  11426.259946   7417.858819   -616.557837  4  2  6  86       
PG03 -12553.082934 -19325.970079  13186.131105   -354.707290  6  5  5  71       
PG04 -13594.288210  -8171.067110  21329.695500    -13.980465  6  5  6  80       
PG05   5108.369861  25961.889218   1185.253778   -118.284157  9  3  5 109       
PG06 -15817.905229   8104.157010  19836.483544    578.686180  6  5  4  96       
PG07 -25684.550078  -6834.110145  -3193.247601    229.213606  8  4  5  84       
PG08  -2823.253952 -16673.804987 -20444.452320   -111.470807 13 11  5 104       
PG09 -20557.512523   2590.519279  16569.334530   -206.579070  8  4  5  90       
PG10  12199.123932 -10860.445501 -20698.606329    -27.289192  5  6     97       
PG11  -1704.830722  15456.160085  21547.123380   -121.405758  5  6  6 120       
PG12  10355.123792  21505.281940  11470.942358   -347.804467  6  5  4  98       
PG13  -6067.279517  18553.193365 -18095.097922    485.783856  7  4  3 109       
PG14 -14097.743564   7846.830872 -21072.213913    -11.947848  8  6  6 108       
PG15   5526.368546  16552.845823 -20409.816151     18.859689  8  5  4 102       
PG16   -233.577007 -26084.284871   3112.598482   -517.082208  8  3  7  88       
PG17 -22682.471005  12910.156040  -4777.287567    703.733652 10  5  5  85       
PG18  25172.858583   3845.517612  -7804.503359   -166.604684 11  7  5  82       
PG19 -19607.351853  17043.742716   4523.957498    285.950598  9  6  6  97       
PG20   -572.399913  23819.970304  11983.166242    446.910891  8  4  5 116       
PG21 -15205.224889 -15213.781703 -15523.816153    154.258808  5  2  6  75       
PG22  16675.891712 -19006.706531   8277.498966    439.299974 10  9 10  54       
PG23  15454.213660   2169.018892 -21506.232244      9.026840  8  4  6  92       
PG24  18069.442206  14889.076440 -13276.422925    -99.286604  5  2  7  95       
PG25  15203.406721  12436.689665  17691.492146    425.213980  2  7  5  95       
PG26   6673.692084 -20306.321867  15433.057563    241.878980  7  6  6  90       
PG27   8285.553108 -20412.211528 -14764.199736     87.971243  8  4  7 105       
PG28  17393.591856  -7938.405532  18402.233637     34.159018  8  5  7 102       
PG29  18794.287635   1892.092700  18653.851027   -589.349562  5  6  5  88       
PG30 -22021.223026   3319.177415 -14567.175544   -528.093019  6  6  4 103       
PG31  14148.755769  -9859.324494  20150.118156   -210.855087  7  5  6 108       
PG32  21100.377013 -15681.775876  -2749.158863   -414.566194  8  5  5  74       
*  2023  3  5 13 15  0.00000000
PG01 -19394.552767 -14146.495682 -12066.586555    205.912583  5  6  5  98       
PG02  21892.563141  11432.126123  10062.714472   -616.555358  4  3  6  76       
PG03 -12678.924234 -20712.426189  10771.659396   -354.701992  7  5  5  64       
PG04 -11736.129756  -9784.274209  21740.369332    -13.972768  5  5  5  79       
PG05   4781.737994  25719.077048   4034.714697   -118.286086  8  3  5 101       
PG06 -17846.538678   7348.734170  18357.248787    578.689237  6  5  3  77       
PG07 -25845.996585  -7146.978200   -395.874205    229.207020  8  5  5  86       
PG08  -1096.838967 -18155.039758 -19277.722981   -111.471501 13 11  6 105       
PG09 -19210.739757   1096.441926  18254.354303   -206.572525  8  4  6  97       
PG10  12790.524018  -8481.239496 -21460.424361    -27.290867  5  6  2 110       
PG11  -4030.724436  14601.143807  21829.265895   -121.415626  6  7  7 117       
PG12  10315.414607  22725.346767   8946.364234   -347.809056  7  4  4  91       
PG13  -7754.911472  19526.413998 -16304.317662    485.788906  6  4  3  99       
PG14 -14583.653818   5452.548677 -21504.453385    -11.939045  8  6  6 108       
PG15   4011.002447  18156.482207 -19323.773607     18.862817  7  5  4 102       
PG16    109.102135 -25563.732176   5941.478690   -517.080564  8  3  7  87       
PG17 -22222.175148  12280.951331  -7540.068906    703.735052  9  5  5  91       
PG18  25801.747506   4270.267602  -5058.201174   -166.619255 11  7  6  75       
PG19 -20054.888837  17076.892139   1653.272001    285.955200  9  6  6  95       
PG20  -1328.582972  22517.396608  14219.268279    446.908406  7  4  5 112       
PG21 -13273.468549 -14908.805033 -17338.219223    154.259282  6  3  5  77       
PG22  17413.533211 -19265.763330   5555.492801    439.306604 11  8  9  78       
PG23  15981.712935   4524.432950 -20753.675306      9.028616  8  5  6  91       
PG24  16485.553917  14745.867069 -15350.980464    -99.300604  6  1  7  91       
PG25  15479.974476  14394.820306  15934.036069    425.216760  3  8  5  96       
PG26   7421.902467 -18535.703774  17233.704400    241.879130  7  7  6  92       
PG27   9557.453885 -21299.506388 -12498.177706     87.963420  8  4  7 104       
PG28  19292.460492  -7247.318629  16720.175839     34.169496  9  5  7  96       
PG29  17103.146984   3327.161293  20019.457942   -589.351202  4  6  5  97       
PG30 -23421.155494   2602.628535 -12405.506485   -528.091659  6  6  4 101       
PG31  16253.169175  -9028.262741  18965.956316   -210.855780  7  5  6 105       
PG32  20918.622842 -15145.355684  -5561.436523   -414.576133  8  5  5  84       
EOF
